     2.100          NAVIGATION                              RINEX VERSION / TYPE
fic2rin                                 04/25/2014 00:10:28 PGM / RUN BY / DATE
                                                            END OF HEADER
 8 14  4 24  3 59 44.0  .130869448185D-04  .227373675443D-12  .000000000000D+00
     .280000000000D+02 -.584375000000D+01  .353086136026D-08  .811265403340D+00
    -.141561031342D-06  .136231563520D-01  .105537474155D-04  .515348199081D+04
     .359984000000D+06 -.689178705215D-07  .218937955229D+01  .296160578728D-06
     .996793202266D+00  .197250000000D+03 -.278087387982D+01 -.764960435101D-08
    -.145720355552D-09  .100000000000D+01  .178900000000D+04  .000000000000D+00
     .240000000000D+01  .000000000000D+00 -.419095158577D-08  .280000000000D+02
     .353166000000D+06  .400000000000D+01
26 14  4 24  4  0  0.0  .995029695332D-04 -.114823706099D-10  .000000000000D+00
     .310000000000D+02 -.167812500000D+02  .421124684391D-08  .289447534814D+01
    -.867992639542D-06  .214524501935D-01  .550597906113D-05  .515369029427D+04
     .360000000000D+06  .162050127983D-06  .111701171531D+01 -.182539224625D-06
     .975216411392D+00  .277281250000D+03  .127842208378D+01 -.775853745994D-08
    -.292155026572D-09  .100000000000D+01  .178900000000D+04  .000000000000D+00
     .240000000000D+01  .000000000000D+00 -.605359673500D-08  .310000000000D+02
     .353706000000D+06  .400000000000D+01
27 14  4 24  3 59 44.0 -.189314596355D-04  .113686837722D-11  .000000000000D+00
     .500000000000D+01 -.566562500000D+02  .495199198463D-08 -.204324870777D+01
    -.303611159325D-05  .112508970778D-02  .507570803165D-05  .515366828728D+04
     .359984000000D+06  .130385160446D-07 -.212496400841D+01 -.149011611938D-07
     .962891955629D+00  .283656250000D+03  .778223761515D-01 -.843642283945D-08
    -.101432796512D-09  .100000000000D+01  .178900000000D+04  .000000000000D+00
     .240000000000D+01  .000000000000D+00  .186264514923D-08  .500000000000D+01
     .354696000000D+06  .400000000000D+01
17 14  4 24  3 59 44.0 -.875638797879D-04 -.306954461848D-11  .000000000000D+00
     .160000000000D+02 -.557500000000D+02  .476376985871D-08 -.218445298840D+01
    -.280886888504D-05  .929722515866D-02  .462122261524D-05  .515357786751D+04
     .359984000000D+06  .163912773132D-06 -.207962304229D+01 -.111758708954D-07
     .968138592824D+00  .292156250000D+03 -.210315518703D+01 -.821105630917D-08
     .160720980388D-10  .100000000000D+01  .178900000000D+04  .000000000000D+00
     .240000000000D+01  .000000000000D+00 -.102445483208D-07  .160000000000D+02
     .355956000000D+06  .400000000000D+01
10 14  4 24  3 59 44.0 -.122787430882D-03 -.136424205266D-11  .000000000000D+00
     .100000000000D+02  .594375000000D+02  .499163649312D-08 -.108980588924D+01
     .316649675369D-05  .135087365052D-01  .797398388386D-05  .515372726631D+04
     .359984000000D+06  .251457095146D-06 -.139449374340D-01  .199303030968D-06
     .942588943619D+00  .216250000000D+03  .863068134206D+00 -.837570602463D-08
     .148577617426D-09  .100000000000D+01  .178900000000D+04  .000000000000D+00
     .240000000000D+01  .000000000000D+00 -.279396772385D-08  .100000000000D+02
     .358236000000D+06  .400000000000D+01
 8 14  4 24  5 59 44.0  .130883418024D-04  .227373675443D-12  .000000000000D+00
     .300000000000D+02 -.101562500000D+02  .337585490362D-08  .186126478108D+01
    -.365078449249D-06  .136243345914D-01  .119898468256D-04  .515348974419D+04
     .367184000000D+06 -.195577740669D-06  .218932492400D+01  .134110450745D-06
     .996791664740D+00  .168031250000D+03 -.278058575810D+01 -.761103131572D-08
    -.224295057075D-09  .100000000000D+01  .178900000000D+04  .000000000000D+00
     .240000000000D+01  .000000000000D+00 -.419095158577D-08  .300000000000D+02
     .360006000000D+06  .400000000000D+01
10 14  4 24  5 59 44.0 -.122797675431D-03 -.136424205266D-11  .000000000000D+00
     .110000000000D+02  .547812500000D+02  .523843248745D-08 -.397203485462D-01
     .306405127048D-05  .135074789869D-01  .834837555885D-05  .515372426796D+04
     .367184000000D+06 -.335276126862D-07 -.140067223162D-01  .128522515297D-06
     .942588946545D+00  .206406250000D+03  .863136336910D+00 -.864464579848D-08
     .172507185617D-09  .100000000000D+01  .178900000000D+04  .000000000000D+00
     .240000000000D+01  .000000000000D+00 -.279396772385D-08  .110000000000D+02
     .360006000000D+06  .400000000000D+01
17 14  4 24  5 59 44.0 -.875857658684D-04 -.306954461848D-11  .000000000000D+00
     .270000000000D+02 -.508125000000D+02  .484627329531D-08 -.113428559013D+01
    -.240281224251D-05  .929735042155D-02  .473856925964D-05  .515357653236D+04
     .367184000000D+06  .132247805595D-06 -.207968201984D+01  .223517417908D-06
     .968137770664D+00  .291593750000D+03 -.210308098343D+01 -.839356391134D-08
    -.628597612185D-10  .100000000000D+01  .178900000000D+04  .000000000000D+00
     .240000000000D+01  .000000000000D+00 -.102445483208D-07  .270000000000D+02
     .360006000000D+06  .400000000000D+01
27 14  4 24  5 59 44.0 -.189235433936D-04  .113686837722D-11  .000000000000D+00
     .360000000000D+02 -.541875000000D+02  .491234747613D-08 -.993037337111D+00
    -.287778675556D-05  .112491706386D-02  .498816370964D-05  .515366831589D+04
     .367184000000D+06 -.186264514923D-07 -.212502499454D+01  .372529029846D-07
     .962891421664D+00  .282812500000D+03  .777981209697D-01 -.842606526515D-08
    -.510735559900D-10  .100000000000D+01  .178900000000D+04  .000000000000D+00
     .240000000000D+01  .000000000000D+00  .186264514923D-08  .360000000000D+02
     .360006000000D+06  .400000000000D+01
 1 14  4 24  6  0  0.0  .978866592050D-05  .147792889038D-11  .000000000000D+00
     .480000000000D+02 -.479062500000D+02  .452876006961D-08  .303777122272D+01
    -.244937837124D-05  .292820937466D-02  .123977661133D-04  .515368427658D+04
     .367200000000D+06 -.502914190292D-07 -.106993492521D+01 -.186264514923D-07
     .960651556570D+00  .138812500000D+03  .312161870452D+00 -.791604402072D-08
    -.105361531588D-09  .100000000000D+01  .178900000000D+04  .000000000000D+00
     .240000000000D+01  .000000000000D+00  .558793544769D-08  .480000000000D+02
     .360006000000D+06  .400000000000D+01
 3 14  4 24  6  0  0.0  .355819240212D-03  .488853402203D-11  .000000000000D+00
     .800000000000D+01 -.429687500000D+02  .539451041730D-08 -.247767310089D+01
    -.231713056564D-05  .168867062312D-01  .356324017048D-05  .515378366852D+04
     .367200000000D+06  .199303030968D-06 -.227339461281D+01  .102445483208D-06
     .937884577972D+00  .290312500000D+03  .137727056309D+01 -.848463913356D-08
     .146077513286D-09  .100000000000D+01  .178900000000D+04  .000000000000D+00
     .240000000000D+01  .000000000000D+00 -.465661287308D-08  .800000000000D+01
     .360006000000D+06  .400000000000D+01
 4 14  4 24  6  0  0.0  .681076198816D-05  .227373675443D-12  .000000000000D+00
     .980000000000D+02 -.536875000000D+02  .514057126828D-08  .744432655054D+00
    -.250339508057D-05  .105492138537D-01  .113062560558D-04  .515372795486D+04
     .367200000000D+06 -.106170773506D-06 -.108274956240D+01  .670552253723D-07
     .938200032849D+00  .153781250000D+03  .109130011961D+01 -.846749556232D-08
    -.226080845746D-09  .100000000000D+01  .178900000000D+04  .000000000000D+00
     .240000000000D+01  .000000000000D+00 -.651925802231D-08  .980000000000D+02
     .360006000000D+06  .400000000000D+01
 6 14  4 24  6  0  0.0 -.156345777214D-03 -.193267624127D-11  .000000000000D+00
     .340000000000D+02  .482187500000D+02  .544808407743D-08 -.184305596702D+00
     .262074172497D-05  .694614660461D-02  .694580376148D-05  .515378324509D+04
     .367200000000D+06  .819563865662D-07  .312903245736D+01  .104308128357D-06
     .981056810463D+00  .258218750000D+03  .848513016567D+00 -.812998150351D-08
     .445732852277D-09  .100000000000D+01  .178900000000D+04  .000000000000D+00
     .240000000000D+01  .630000000000D+02 -.190921127796D-07  .340000000000D+02
     .360006000000D+06  .400000000000D+01
 7 14  4 24  6  0  0.0  .338753685355D-03  .420641299570D-11  .000000000000D+00
     .440000000000D+02 -.678125000000D+01  .396480800731D-08  .240186689503D+01
    -.305473804474D-06  .721008435357D-02  .114068388939D-04  .515364244652D+04
     .367200000000D+06 -.145286321640D-06  .209063504695D+01 -.204890966415D-07
     .973523828341D+00  .164875000000D+03 -.284097992743D+01 -.782032574796D-08
    -.190007914592D-09  .100000000000D+01  .178900000000D+04  .000000000000D+00
     .240000000000D+01  .000000000000D+00 -.107102096081D-07  .440000000000D+02
     .360006000000D+06  .400000000000D+01
 9 14  4 24  6  0  0.0  .322492793202D-03  .284217094304D-11  .000000000000D+00
     .170000000000D+02 -.187187500000D+02  .364050878466D-08 -.280751886699D+01
    -.856816768646D-06  .171182843624D-01  .111926347017D-04  .515369155884D+04
     .367200000000D+06  .139698386192D-06  .206997980377D+01  .875443220139D-07
     .982058340272D+00  .169312500000D+03  .179273690865D+01 -.743388107956D-08
    -.181078971237D-09  .100000000000D+01  .178900000000D+04  .000000000000D+00
     .240000000000D+01  .000000000000D+00 -.605359673500D-08  .170000000000D+02
     .360006000000D+06  .400000000000D+01
11 14  4 24  6  0  0.0 -.483275856823D-03 -.318323145621D-11  .000000000000D+00
     .790000000000D+02 -.925625000000D+02  .616454249222D-08  .258298391403D+01
    -.484287738800D-05  .148668583715D-01  .944919884205D-05  .515370486641D+04
     .367200000000D+06  .126659870148D-06 -.139153196481D+01 -.176951289177D-06
     .890093918956D+00  .155218750000D+03  .127876279740D+01 -.860785855186D-08
    -.280725979078D-09  .100000000000D+01  .178900000000D+04  .000000000000D+00
     .240000000000D+01  .000000000000D+00 -.121071934700D-07  .790000000000D+02
     .360006000000D+06  .400000000000D+01
